STARLINK-31794          
1 59803U 24093X   26068.43870614 -.00013177  00000+0 -46973-3 0  9990
2 59803  43.0046 210.6044 0001704 290.9805  69.0864 15.27609693102729
TEVEL2-1                
1 63217U 25052H   26068.64782323  .00020683  00000+0  70600-3 0  9994
2 63217  97.3991 324.7682 0004767 104.8919 255.2849 15.30341923 54855
